{"type": "FeatureCollection", "features": [ {"type": "Feature", "properties": {"norad_id": 33748, "name": "FENGYUN 1C DEB", "group": "fengyun-1c-debris", "lat": 53.455998801172655, "lon": -118.79448626879609, "alt_km": 774.7222590907159, "timestamp": "2025-12-24T09:46:31.291511+00:00", "meta": {"OBJECT_NAME": "FENGYUN 1C DEB", "OBJECT_ID": "1999-025DJM", "EPOCH": "2025-12-20T21:21:40.065984", "MEAN_MOTION": 14.32332217, "ECCENTRICITY": 0.0034916, "INCLINATION": 98.5853, "RA_OF_ASC_NODE": 45.9627, "ARG_OF_PERICENTER": 216.6923, "MEAN_ANOMALY": 143.1869, "EPHEMERIS_TYPE": 0, "CLASSIFICATION_TYPE": "U", "NORAD_CAT_ID": 33748, "ELEMENT_SET_NO": 999, "REV_AT_EPOCH": 91510, "BSTAR": 0.00084448, "MEAN_MOTION_DOT": 2.253e-05, "MEAN_MOTION_DDOT": 0}, "tle": {"line1": "1 33748U 99025DJM 25354.89004706  .00002253  00000+0  84448-3 0  9995", "line2": "2 33748  98.5853  45.9627 0034916 216.6923 143.1869 14.32332217915106"}}, "geometry": {"type": "Point", "coordinates": [-118.79448626879609, 53.455998801172655]}}, {"type": "Feature", "properties": {"norad_id": 35088, "name": "FENGYUN 1C DEB", "group": "fengyun-1c-debris", "lat": 68.61325245242774, "lon": 156.4338562917491, "alt_km": 866.887502325787, "timestamp": "2025-12-24T09:46:31.291521+00:00", "meta": {"OBJECT_NAME": "FENGYUN 1C DEB", "OBJECT_ID": "1999-025DJQ", "EPOCH": "2025-12-20T06:48:25.112736", "MEAN_MOTION": 14.12178698, "ECCENTRICITY": 0.02665925, "INCLINATION": 94.6216, "RA_OF_ASC_NODE": 166.2192, "ARG_OF_PERICENTER": 179.9936, "MEAN_ANOMALY": 180.1297, "EPHEMERIS_TYPE": 0, "CLASSIFICATION_TYPE": "U", "NORAD_CAT_ID": 35088, "ELEMENT_SET_NO": 999, "REV_AT_EPOCH": 58906, "BSTAR": 0.004541836, "MEAN_MOTION_DOT": 0.00011675, "MEAN_MOTION_DDOT": 0}, "tle": {"line1": "1 35088U 99025DJQ 25354.28362399  .00011675  00000+0  45418-2 0  9993", "line2": "2 35088  94.6216 166.2192 0266592 179.9936 180.1297 14.12178698589068"}}, "geometry": {"type": "Point", "coordinates": [156.4338562917491, 68.61325245242774]}}, {"type": "Feature", "properties": {"norad_id": 35089, "name": "FENGYUN 1C DEB", "group": "fengyun-1c-debris", "lat": -69.75455390542662, "lon": 31.95251821115703, "alt_km": 839.0328491978507, "timestamp": "2025-12-24T09:46:31.291531+00:00", "meta": {"OBJECT_NAME": "FENGYUN 1C DEB", "OBJECT_ID": "1999-025DJR", "EPOCH": "2025-12-23T07:02:36.109536", "MEAN_MOTION": 14.19444078, "ECCENTRICITY": 0.00286047, "INCLINATION": 98.5591, "RA_OF_ASC_NODE": 6.7767, "ARG_OF_PERICENTER": 34.5935, "MEAN_ANOMALY": 325.7095, "EPHEMERIS_TYPE": 0, "CLASSIFICATION_TYPE": "U", "NORAD_CAT_ID": 35089, "ELEMENT_SET_NO": 999, "REV_AT_EPOCH": 61025, "BSTAR": 0.00054341362, "MEAN_MOTION_DOT": 1.106e-05, "MEAN_MOTION_DDOT": 0}, "tle": {"line1": "1 35089U 99025DJR 25357.29347349  .00001106  00000+0  54341-3 0  9990", "line2": "2 35089  98.5591   6.7767 0028604  34.5935 325.7095 14.19444078610253"}}, "geometry": {"type": "Point", "coordinates": [31.95251821115703, -69.75455390542662]}}, {"type": "Feature", "properties": {"norad_id": 35090, "name": "FENGYUN 1C DEB", "group": "fengyun-1c-debris", "lat": 5.310372064628435, "lon": -167.62533694616192, "alt_km": 874.0596660484925, "timestamp": "2025-12-24T09:46:31.291541+00:00", "meta": {"OBJECT_NAME": "FENGYUN 1C DEB", "OBJECT_ID": "1999-025DJS", "EPOCH": "2025-12-15T11:31:21.871200", "MEAN_MOTION": 14.17610468, "ECCENTRICITY": 0.00548506, "INCLINATION": 99.1994, "RA_OF_ASC_NODE": 2.2725, "ARG_OF_PERICENTER": 7.0781, "MEAN_ANOMALY": 353.1155, "EPHEMERIS_TYPE": 0, "CLASSIFICATION_TYPE": "U", "NORAD_CAT_ID": 35090, "ELEMENT_SET_NO": 999, "REV_AT_EPOCH": 66289, "BSTAR": 0.0011364277, "MEAN_MOTION_DOT": 2.298e-05, "MEAN_MOTION_DDOT": 0}, "tle": {"line1": "1 35090U 99025DJS 25349.48011425  .00002298  00000+0  11364-2 0  9997", "line2": "2 35090  99.1994   2.2725 0054850   7.0781 353.1155 14.17610468662895"}}, "geometry": {"type": "Point", "coordinates": [-167.62533694616192, 5.310372064628435]}}, {"type": "Feature", "properties": {"norad_id": 35091, "name": "FENGYUN 1C DEB", "group": "fengyun-1c-debris", "lat": -15.766553996481452, "lon": -79.28448086074597, "alt_km": 674.4301923679786, "timestamp": "2025-12-24T09:46:31.291551+00:00", "meta": {"OBJECT_NAME": "FENGYUN 1C DEB", "OBJECT_ID": "1999-025DJT", "EPOCH": "2025-12-23T06:35:36.825792", "MEAN_MOTION": 14.61813042, "ECCENTRICITY": 0.00499018, "INCLINATION": 98.5978, "RA_OF_ASC_NODE": 101.9864, "ARG_OF_PERICENTER": 259.6924, "MEAN_ANOMALY": 99.8647, "EPHEMERIS_TYPE": 0, "CLASSIFICATION_TYPE": "U", "NORAD_CAT_ID": 35091, "ELEMENT_SET_NO": 999, "REV_AT_EPOCH": 90081, "BSTAR": 0.0028835573, "MEAN_MOTION_DOT": 0.0001463, "MEAN_MOTION_DDOT": 0}, "tle": {"line1": "1 35091U 99025DJT 25357.27473178  .00014630  00000+0  28836-2 0  9996", "line2": "2 35091  98.5978 101.9864 0049901 259.6924  99.8647 14.61813042900816"}}, "geometry": {"type": "Point", "coordinates": [-79.28448086074597, -15.766553996481452]}}, {"type": "Feature", "properties": {"norad_id": 35102, "name": "FENGYUN 1C DEB", "group": "fengyun-1c-debris", "lat": 52.4948625072702, "lon": -2.8489059816893523, "alt_km": 746.9530956277868, "timestamp": "2025-12-24T09:46:31.291562+00:00", "meta": {"OBJECT_NAME": "FENGYUN 1C DEB", "OBJECT_ID": "1999-025DKE", "EPOCH": "2025-12-13T06:19:02.409312", "MEAN_MOTION": 14.28874039, "ECCENTRICITY": 0.00607637, "INCLINATION": 98.4802, "RA_OF_ASC_NODE": 357.5239, "ARG_OF_PERICENTER": 90.2418, "MEAN_ANOMALY": 270.5727, "EPHEMERIS_TYPE": 0, "CLASSIFICATION_TYPE": "U", "NORAD_CAT_ID": 35102, "ELEMENT_SET_NO": 999, "REV_AT_EPOCH": 64920, "BSTAR": 0.00073405609, "MEAN_MOTION_DOT": 1.848e-05, "MEAN_MOTION_DDOT": 0}, "tle": {"line1": "1 35102U 99025DKE 25347.26322233  .00001848  00000+0  73406-3 0  9993", "line2": "2 35102  98.4802 357.5239 0060763  90.2418 270.5727 14.28874039649201"}}, "geometry": {"type": "Point", "coordinates": [-2.8489059816893523, 52.4948625072702]}}, {"type": "Feature", "properties": {"norad_id": 35104, "name": "FENGYUN 1C DEB", "group": "fengyun-1c-debris", "lat": -38.42357783793257, "lon": 177.89027130518997, "alt_km": 838.6686414918331, "timestamp": "2025-12-24T09:46:31.291572+00:00", "meta": {"OBJECT_NAME": "FENGYUN 1C DEB", "OBJECT_ID": "1999-025DKG", "EPOCH": "2025-12-20T06:46:17.192352", "MEAN_MOTION": 14.20340868, "ECCENTRICITY": 0.00314522, "INCLINATION": 98.5954, "RA_OF_ASC_NODE": 0.7725, "ARG_OF_PERICENTER": 119.6618, "MEAN_ANOMALY": 257.8395, "EPHEMERIS_TYPE": 0, "CLASSIFICATION_TYPE": "U", "NORAD_CAT_ID": 35104, "ELEMENT_SET_NO": 999, "REV_AT_EPOCH": 89874, "BSTAR": 0.00030233796, "MEAN_MOTION_DOT": 6.08e-06, "MEAN_MOTION_DDOT": 0}, "tle": {"line1": "1 35104U 99025DKG 25354.28214343  .00000608  00000+0  30234-3 0  9992", "line2": "2 35104  98.5954   0.7725 0031452 119.6618 257.8395 14.20340868898744"}}, "geometry": {"type": "Point", "coordinates": [177.89027130518997, -38.42357783793257]}}, {"type": "Feature", "properties": {"norad_id": 35105, "name": "FENGYUN 1C DEB", "group": "fengyun-1c-debris", "lat": -46.508393828884, "lon": 150.52218887705854, "alt_km": 818.3657089849539, "timestamp": "2025-12-24T09:46:31.291582+00:00", "meta": {"OBJECT_NAME": "FENGYUN 1C DEB", "OBJECT_ID": "1999-025DKH", "EPOCH": "2025-12-20T16:40:27.119712", "MEAN_MOTION": 14.45399411, "ECCENTRICITY": 0.01124743, "INCLINATION": 98.9445, "RA_OF_ASC_NODE": 336.168, "ARG_OF_PERICENTER": 30.8771, "MEAN_ANOMALY": 329.8969, "EPHEMERIS_TYPE": 0, "CLASSIFICATION_TYPE": "U", "NORAD_CAT_ID": 35105, "ELEMENT_SET_NO": 999, "REV_AT_EPOCH": 94608, "BSTAR": 0.00026626105, "MEAN_MOTION_DOT": 9.59e-06, "MEAN_MOTION_DDOT": 0}, "tle": {"line1": "1 35105U 99025DKH 25354.69475833  .00000959  00000+0  26626-3 0  9990", "line2": "2 35105  98.9445 336.1680 0112474  30.8771 329.8969 14.45399411946081"}}, "geometry": {"type": "Point", "coordinates": [150.52218887705854, -46.508393828884]}}, {"type": "Feature", "properties": {"norad_id": 35108, "name": "FENGYUN 1C DEB", "group": "fengyun-1c-debris", "lat": 22.981209137184972, "lon": -10.037912353423026, "alt_km": 771.7369133860429, "timestamp": "2025-12-24T09:46:31.291593+00:00", "meta": {"OBJECT_NAME": "FENGYUN 1C DEB", "OBJECT_ID": "1999-025DKL", "EPOCH": "2025-12-14T17:32:43.265184", "MEAN_MOTION": 14.06913766, "ECCENTRICITY": 0.01353379, "INCLINATION": 98.801, "RA_OF_ASC_NODE": 344.3103, "ARG_OF_PERICENTER": 55.9263, "MEAN_ANOMALY": 305.4667, "EPHEMERIS_TYPE": 0, "CLASSIFICATION_TYPE": "U", "NORAD_CAT_ID": 35108, "ELEMENT_SET_NO": 999, "REV_AT_EPOCH": 89266, "BSTAR": 0.00032621951, "MEAN_MOTION_DOT": 5.49e-06, "MEAN_MOTION_DDOT": 0}, "tle": {"line1": "1 35108U 99025DKL 25348.73105631  .00000549  00000+0  32622-3 0  9995", "line2": "2 35108  98.8010 344.3103 0135337  55.9263 305.4667 14.06913766892660"}}, "geometry": {"type": "Point", "coordinates": [-10.037912353423026, 22.981209137184972]}}, {"type": "Feature", "properties": {"norad_id": 35109, "name": "FENGYUN 1C DEB", "group": "fengyun-1c-debris", "lat": 46.63695804768228, "lon": -21.83674927984397, "alt_km": 741.8432175329044, "timestamp": "2025-12-24T09:46:31.291602+00:00", "meta": {"OBJECT_NAME": "FENGYUN 1C DEB", "OBJECT_ID": "1999-025DKM", "EPOCH": "2025-12-23T16:39:33.510240", "MEAN_MOTION": 14.20891794, "ECCENTRICITY": 0.01528263, "INCLINATION": 98.616, "RA_OF_ASC_NODE": 346.7058, "ARG_OF_PERICENTER": 2.767, "MEAN_ANOMALY": 357.4318, "EPHEMERIS_TYPE": 0, "CLASSIFICATION_TYPE": "U", "NORAD_CAT_ID": 35109, "ELEMENT_SET_NO": 999, "REV_AT_EPOCH": 64315, "BSTAR": 0.00029677267, "MEAN_MOTION_DOT": 6.79e-06, "MEAN_MOTION_DDOT": 0}, "tle": {"line1": "1 35109U 99025DKM 25357.69413785  .00000679  00000+0  29677-3 0  9993", "line2": "2 35109  98.6160 346.7058 0152826   2.7670 357.4318 14.20891794643154"}}, "geometry": {"type": "Point", "coordinates": [-21.83674927984397, 46.63695804768228]}}]}